UNKNOWN                 
1 81438U          26036.39458304  .00003322  00000+0  48396-2 0  9998
2 81438 100.3205 275.4666 0056763 304.9355  54.6455 13.55054910599341
UNKNOWN                 
1 81439U          26061.17575052  .00000367  00000+0  11705-2 0  9993
2 81439  67.1627 348.1998 0596100 154.3128 208.8823 12.62648361271924
UNKNOWN                 
1 81449U          26062.15385278  .00129316  00000+0  65372-2 0  9997
2 81449  66.7884 114.8735 0023195  20.1934 340.0120 15.16098238645676
UNKNOWN                 
1 81478U          26062.24778351  .00003859  00000+0  13778-2 0  9993
2 81478  98.9519 341.2597 0145319 124.1030  33.1695 14.28997029634434
UNKNOWN                 
1 81488U          26062.16280925  .00000201  00000+0  34814-3 0  9993
2 81488  99.9938 300.9994 0044550 159.4309 352.8371 13.56549084607536
UNKNOWN                 
1 81497U          26060.98000182  .00003724  00000+0  33385-2 0  9990
2 81497 100.2999 328.2356 0027031 170.1750 255.6004 13.84808267227262
UNKNOWN                 
1 81499U          26062.43463157  .00003610  00000+0  98592-3 0  9995
2 81499  74.0473  70.2915 0002874 239.4746 120.6130 14.47653107494095
UNKNOWN                 
1 81535U          26059.65222686  .00000990  00000+0  42220-3 0  9991
2 81535  98.1914 140.4812 0233465 283.1073  74.4143 14.13624769398403
UNKNOWN                 
1 81536U          26062.58550214  .00000564  00000+0  37101-2 0  9997
2 81536 101.9677 289.6302 0018077 124.4323 264.8436 12.55972919561968
UNKNOWN                 
1 81537U          26061.36988542  .00000297  00000+0  19949-3 0  9996
2 81537  71.0398 304.5004 0075868  31.0100 329.5464 14.07156543631660
UNKNOWN                 
1 81599U          26061.56480048  .00000052  00000+0  20167-3 0  9997
2 81599  67.2933 108.2804 0246381  25.3108 125.2996 13.31539105595701
UNKNOWN                 
1 81605U          26062.17052161 -.00001881  00000+0 -72951-2 0  9994
2 81605  56.4348 345.6997 0150635 250.6305 107.8283 12.81434570196512
